BEIDOU 3 (C01)          
1 36287U 10001A   22237.60263399 -.00000284  00000+0  00000+0 0  9995
2 36287   1.6298  45.9429 0001603 349.2145 296.1123  1.00271599 46205
BEIDOU 5 (C06)          
1 36828U 10036A   22237.58697156 -.00000155  00000+0  00000+0 0  9990
2 36828  54.2013 175.5965 0030540 190.0743 287.3639  1.00278890 44278
BEIDOU 6 (C04)          
1 37210U 10057A   22237.57080056 -.00000115  00000+0  00000+0 0  9999
2 37210   0.9744  54.3005 0006125 135.8006 149.2723  1.00273577 43325
BEIDOU 7 (C07)          
1 37256U 10068A   22237.51559696 -.00000154  00000+0  00000+0 0  9999
2 37256  50.0887 288.8209 0023982 201.4679 136.6631  1.00285504 42831
BEIDOU 8 (C08)          
1 37384U 11013A   22237.27242060 -.00000142  00000+0  00000+0 0  9996
2 37384  60.3921  53.5763 0023269 177.1189 308.1779  1.00289096 41716
BEIDOU 9 (C09)          
1 37763U 11038A   22236.86099685 -.00000106  00000+0  00000+0 0  9991
2 37763  54.4833 178.1011 0099257 228.3352 331.9547  1.00266622 40686
BEIDOU 10 (C10)         
1 37948U 11073A   22237.50951005 -.00000109  00000+0  00000+0 0  9993
2 37948  50.2058 288.4668 0086259 218.8820 105.8576  1.00278693 39442
BEIDOU 11 (C05)         
1 38091U 12008A   22236.85847828  .00000050  00000+0  00000+0 0  9990
2 38091   1.7134  69.1580 0013229 344.0637 287.7876  1.00277816 38516
BEIDOU 12 (C11)         
1 38250U 12018A   22237.40863230 -.00000100  00000+0  00000+0 0  9992
2 38250  56.6754 351.2837 0021878 249.3111 112.7633  1.86234268 70379
BEIDOU 13 (C12)         
1 38251U 12018B   22236.85290544 -.00000103  00000+0  00000+0 0  9996
2 38251  56.5909 350.6220 0012647 248.8713 144.7905  1.86234060 70362
BEIDOU 15 (C14)         
1 38775U 12050B   22236.20249537 -.00000016  00000+0  00000+0 0  9991
2 38775  55.4380 109.4050 0013289 330.2294 183.3772  1.86231373 67729
BEIDOU 16 (C02)         
1 38953U 12059A   22237.47387712 -.00000180  00000+0  00000+0 0  9998
2 38953   2.1547  84.0896 0009198 302.4786 201.7973  1.00270195 35957
BEIDOU 17 (C31)         
1 40549U 15019A   22237.16378876 -.00000155  00000+0  00000+0 0  9990
2 40549  51.7671 311.9598 0038172 195.6435 340.2547  1.00282671 27125
BEIDOU 18 (C57)         
1 40748U 15037A   22237.01489976 -.00000102  00000+0  00000+0 0  9991
2 40748  55.8419 349.4411 0002879  61.7848 349.8352  1.86233345 48194
BEIDOU 19 (C58)         
1 40749U 15037B   22237.27837514 -.00000101  00000+0  00000+0 0  9994
2 40749  55.8452 349.4225 0002064 320.4885  42.0072  1.86232294 48190
BEIDOU 20 (C18)         
1 40938U 15053A   22237.48491347 -.00000079  00000+0  00000+0 0  9999
2 40938  51.3933 275.0789 0046447 199.1850 130.5998  1.00277680 25391
BEIDOU IGSO-6 (C13)     
1 41434U 16021A   22237.32181293 -.00000120  00000+0  00000+0 0  9993
2 41434  58.2009  52.1196 0044342 215.0148 278.1045  1.00269505 23521
BEIDOU-2 G7 (C03)       
1 41586U 16037A   22237.47910913 -.00000358  00000+0  00000+0 0  9996
2 41586   1.5223  67.3233 0007818 358.4109 190.9476  1.00269871 22832
BEIDOU-3 M1 (C19)       
1 43001U 17069A   22237.08459860 -.00000004  00000+0  00000+0 0  9990
2 43001  55.5907 109.3849 0009245 298.1231 243.2225  1.86231729 32678
BEIDOU-3 M2 (C20)       
1 43002U 17069B   22237.01745433 -.00000005  00000+0  00000+0 0  9999
2 43002  55.5908 109.4231 0007943 323.4998 215.7564  1.86231327 32664
BEIDOU-3 M3 (C27)       
1 43107U 18003A   22236.97369466 -.00000104  00000+0  00000+0 0  9996
2 43107  55.2934 350.3294 0004760  71.4061 244.7363  1.86232491 31422
BEIDOU-3 M4 (C28)       
1 43108U 18003B   22236.43846434 -.00000107  00000+0  00000+0 0  9996
2 43108  55.2873 350.3362 0002716 228.0992 132.7055  1.86230928 31420
BEIDOU-3 M5 (C21)       
1 43207U 18018A   22236.88201838 -.00000007  00000+0  00000+0 0  9993
2 43207  55.5502 109.5029 0005732 353.1010   6.9797  1.86231673 30813
BEIDOU-3 M6 (C22)       
1 43208U 18018B   22237.24909282 -.00000002  00000+0  00000+0 0  9998
2 43208  55.5499 109.4956 0006908 312.2085 249.2229  1.86231899 30813
BEIDOU-3 M7 (C29)       
1 43245U 18029A   22237.10756157 -.00000102  00000+0  00000+0 0  9998
2 43245  55.2036 348.0890 0001009 142.3081 174.0624  1.86232677 29964
BEIDOU-3 M8 (C30)       
1 43246U 18029B   22237.04488795 -.00000102  00000+0  10000-3 0  9997
2 43246  55.2005 348.1204 0003033   9.6890 311.2499  1.86232909 29955
BEIDOU IGSO-7 (C16)     
1 43539U 18057A   22236.79847020 -.00000161  00000+0  00000+0 0  9994
2 43539  55.0905 175.1269 0052702 228.8795 329.5746  1.00289863 15197
BEIDOU-3 M9 (C23)       
1 43581U 18062A   22236.44538578  .00000054  00000+0  00000+0 0  9994
2 43581  54.2599 229.7561 0006029 271.5579 218.6400  1.86231880 27694
BEIDOU-3 M10 (C24)      
1 43582U 18062B   22236.90483473  .00000051  00000+0  00000+0 0  9996
2 43582  54.2595 229.7299 0004832 336.1579 193.9316  1.86232283 27708
BEIDOU-3 M11 (C25)      
1 43602U 18067A   22237.24276666  .00000048  00000+0  00000+0 0  9992
2 43602  54.3424 228.3391 0006697 359.7650  78.1692  1.86231596 27205
BEIDOU-3 M12 (C26)      
1 43603U 18067B   22237.53226655  .00000047  00000+0  00000+0 0  9997
2 43603  54.3394 228.2967 0004080 340.4647 201.9267  1.86231532 27223
BEIDOU-3 M13 (C32)      
1 43622U 18072A   22237.04708703 -.00000004  00000+0  00000+0 0  9993
2 43622  55.5168 109.0506 0005857 296.9714 309.2358  1.86231833 26725
BEIDOU-3 M14 (C33)      
1 43623U 18072B   22237.35221653 -.00000001  00000+0  00000+0 0  9999
2 43623  55.5196 109.0325 0004218 328.6197 212.4025  1.86231865 26736
BEIDOU-3 M15 (C34)      
1 43647U 18078A   22237.25448641 -.00000101  00000+0  10000-3 0  9994
2 43647  55.0984 348.2366 0005203   9.6074   1.5071  1.86233093 26248
BEIDOU-3 M16 (C35)      
1 43648U 18078B   22236.83730135 -.00000104  00000+0  00000+0 0  9998
2 43648  55.0953 348.2567 0003702  32.3768 326.6905  1.86232250 26244
BEIDOU-3 G1 (C59)       
1 43683U 18085A   22237.52686623 -.00000284  00000+0  00000+0 0  9993
2 43683   0.9630 155.2225 0004495  20.4584 127.8118  1.00270170 14103
BEIDOU-3 M17 (C36)      
1 43706U 18093A   22236.98948731  .00000051  00000+0  00000+0 0  9999
2 43706  54.3429 229.6277 0011235 274.5339  85.3408  1.86232093 25615
BEIDOU-3 M18 (C37)      
1 43707U 18093B   22237.51251877  .00000048  00000+0  00000+0 0  9994
2 43707  54.3421 229.6008 0009438 295.0716 146.7482  1.86232200 25613
BEIDOU-3 IGSO-1 (C38)   
1 44204U 19023A   22236.46942557 -.00000181  00000+0  00000+0 0  9995
2 44204  56.6570  52.2399 0022779 188.5578  19.6610  1.00289223 12399
BEIDOU-2 G8             
1 44231U 19027A   22237.63505383 -.00000251  00000+0  00000+0 0  9999
2 44231   1.0236  78.5056 0005711 114.9391 153.5903  1.00272932 12118
BEIDOU-3 IGSO-2 (C39)   
1 44337U 19035A   22236.77591813 -.00000167  00000+0  00000+0 0  9998
2 44337  55.1232 171.1154 0025901 193.4064   7.0690  1.00283799 11738
BEIDOU-3 M23 (C45)      
1 44542U 19061A   22236.38870311  .00000055  00000+0  00000+0 0  9990
2 44542  54.5693 229.8037 0008732 326.1830  33.7677  1.86231523 19854
BEIDOU-3 M24 (C46)      
1 44543U 19061B   22237.16451486  .00000051  00000+0  00000+0 0  9992
2 44543  54.5660 229.7467 0006438 307.9650 123.5297  1.86231768 19861
BEIDOU-3 IGSO-3         
1 44709U 19073A   22237.56716000 -.00000141  00000+0  10000-3 0  9995
2 44709  57.1520 295.6692 0027584 179.8869 181.6691  1.00287753 10498
BEIDOU-3 M21            
1 44793U 19078A   22237.30452515 -.00000101  00000+0  10000-3 0  9999
2 44793  54.9477 348.2491 0005272  20.7186 337.7289  1.86232307 18725
BEIDOU-3 M22            
1 44794U 19078B   22237.43501650 -.00000100  00000+0  00000+0 0  9993
2 44794  54.9217 348.2343 0003275  21.1017 336.6186  1.86232750 18729
BEIDOU-3 M19            
1 44864U 19090A   22237.42509794  .00000000  00000+0  00000+0 0  9999
2 44864  55.4520 109.2450 0015979 272.9282 272.5589  1.86231962 18312
BEIDOU-3 M20            
1 44865U 19090B   22237.28542104 -.00000002  00000+0  00000+0 0  9999
2 44865  55.4542 109.2816 0014434 288.0459 253.6509  1.86231922 18286
BEIDOU-3 G2             
1 45344U 20017A   22237.47309230 -.00000143  00000+0  00000+0 0  9991
2 45344   2.0281 355.4785 0004521 142.0107  86.5646  1.00271506  9308
BEIDOU-3 G3             
1 45807U 20040A   22237.47910913 -.00000357  00000+0  00000+0 0  9994
2 45807   1.2903 305.2615 0007602 328.9011 342.4700  1.00265726  8111
